CCSDS_OMM_VERS = 2.0
CREATION_DATE  = 
ORIGINATOR     = 

OBJECT_NAME    = ALOS (DAICHI)
OBJECT_ID      = 2006-002A
CENTER_NAME    = EARTH
REF_FRAME      = TEME
TIME_SYSTEM    = UTC
MEAN_ELEMENT_THEORY = SGP/SGP4

EPOCH          = 2026-02-18T04:02:50.292096
MEAN_MOTION    = 14.69742075
ECCENTRICITY   = .0001724
INCLINATION    = 98.1187
RA_OF_ASC_NODE = 5.2273
ARG_OF_PERICENTER = 57.2609
MEAN_ANOMALY   = 302.8763

EPHEMERIS_TYPE = 0
CLASSIFICATION_TYPE = U
NORAD_CAT_ID   = 28931
ELEMENT_SET_NO = 999
REV_AT_EPOCH   = 7061
BSTAR          = .23205E-3
MEAN_MOTION_DOT = .1334E-4
MEAN_MOTION_DDOT = 0

CCSDS_OMM_VERS = 2.0
CREATION_DATE  = 
ORIGINATOR     = 

OBJECT_NAME    = H-2A R/B
OBJECT_ID      = 2006-002B
CENTER_NAME    = EARTH
REF_FRAME      = TEME
TIME_SYSTEM    = UTC
MEAN_ELEMENT_THEORY = SGP/SGP4

EPOCH          = 2026-02-17T08:21:33.044832
MEAN_MOTION    = 15.15986519
ECCENTRICITY   = .00522757
INCLINATION    = 98.2372
RA_OF_ASC_NODE = 193.6357
ARG_OF_PERICENTER = 311.2531
MEAN_ANOMALY   = 48.4201

EPHEMERIS_TYPE = 0
CLASSIFICATION_TYPE = U
NORAD_CAT_ID   = 28932
ELEMENT_SET_NO = 999
REV_AT_EPOCH   = 9135
BSTAR          = .49487762E-3
MEAN_MOTION_DOT = .976E-4
MEAN_MOTION_DDOT = 0

CCSDS_OMM_VERS = 2.0
CREATION_DATE  = 
ORIGINATOR     = 

OBJECT_NAME    = RESURS-DK 1
OBJECT_ID      = 2006-021A
CENTER_NAME    = EARTH
REF_FRAME      = TEME
TIME_SYSTEM    = UTC
MEAN_ELEMENT_THEORY = SGP/SGP4

EPOCH          = 2026-02-18T02:15:34.280064
MEAN_MOTION    = 15.12624950
ECCENTRICITY   = .0003498
INCLINATION    = 69.9327
RA_OF_ASC_NODE = 287.7110
ARG_OF_PERICENTER = 188.7669
MEAN_ANOMALY   = 171.3436

EPHEMERIS_TYPE = 0
CLASSIFICATION_TYPE = U
NORAD_CAT_ID   = 29228
ELEMENT_SET_NO = 999
REV_AT_EPOCH   = 8456
BSTAR          = .12669E-3
MEAN_MOTION_DOT = .2111E-4
MEAN_MOTION_DDOT = 0

CCSDS_OMM_VERS = 2.0
CREATION_DATE  = 
ORIGINATOR     = 

OBJECT_NAME    = CZ-4B R/B
OBJECT_ID      = 2006-046C
CENTER_NAME    = EARTH
REF_FRAME      = TEME
TIME_SYSTEM    = UTC
MEAN_ELEMENT_THEORY = SGP/SGP4

EPOCH          = 2026-02-18T01:58:00.193152
MEAN_MOTION    = 15.16686147
ECCENTRICITY   = .0032733
INCLINATION    = 97.5630
RA_OF_ASC_NODE = 94.0422
ARG_OF_PERICENTER = 338.1558
MEAN_ANOMALY   = 21.8277

EPHEMERIS_TYPE = 0
CLASSIFICATION_TYPE = U
NORAD_CAT_ID   = 29507
ELEMENT_SET_NO = 999
REV_AT_EPOCH   = 5707
BSTAR          = .23058E-3
MEAN_MOTION_DOT = .4506E-4
MEAN_MOTION_DDOT = 0

CCSDS_OMM_VERS = 2.0
CREATION_DATE  = 
ORIGINATOR     = 

OBJECT_NAME    = CZ-2C R/B
OBJECT_ID      = 2007-010B
CENTER_NAME    = EARTH
REF_FRAME      = TEME
TIME_SYSTEM    = UTC
MEAN_ELEMENT_THEORY = SGP/SGP4

EPOCH          = 2026-02-17T17:13:57.614016
MEAN_MOTION    = 14.20238899
ECCENTRICITY   = .005873
INCLINATION    = 98.3972
RA_OF_ASC_NODE = 162.9991
ARG_OF_PERICENTER = 353.4843
MEAN_ANOMALY   = 6.5565

EPHEMERIS_TYPE = 0
CLASSIFICATION_TYPE = U
NORAD_CAT_ID   = 31114
ELEMENT_SET_NO = 999
REV_AT_EPOCH   = 97688
BSTAR          = .67698E-4
MEAN_MOTION_DOT = .106E-5
MEAN_MOTION_DDOT = 0

CCSDS_OMM_VERS = 2.0
CREATION_DATE  = 
ORIGINATOR     = 

OBJECT_NAME    = COSMO-SKYMED 1
OBJECT_ID      = 2007-023A
CENTER_NAME    = EARTH
REF_FRAME      = TEME
TIME_SYSTEM    = UTC
MEAN_ELEMENT_THEORY = SGP/SGP4

EPOCH          = 2026-02-18T04:57:16.803072
MEAN_MOTION    = 14.96375609
ECCENTRICITY   = .0001411
INCLINATION    = 97.8860
RA_OF_ASC_NODE = 240.0845
ARG_OF_PERICENTER = 91.9382
MEAN_ANOMALY   = 268.2001

EPHEMERIS_TYPE = 0
CLASSIFICATION_TYPE = U
NORAD_CAT_ID   = 31598
ELEMENT_SET_NO = 999
REV_AT_EPOCH   = 1199
BSTAR          = .34375E-3
MEAN_MOTION_DOT = .3834E-4
MEAN_MOTION_DDOT = 0

CCSDS_OMM_VERS = 2.0
CREATION_DATE  = 
ORIGINATOR     = 

OBJECT_NAME    = KORONAS-FOTON
OBJECT_ID      = 2009-003A
CENTER_NAME    = EARTH
REF_FRAME      = TEME
TIME_SYSTEM    = UTC
MEAN_ELEMENT_THEORY = SGP/SGP4

EPOCH          = 2026-02-18T02:45:47.322720
MEAN_MOTION    = 15.42795880
ECCENTRICITY   = .0009471
INCLINATION    = 82.4308
RA_OF_ASC_NODE = 296.2207
ARG_OF_PERICENTER = 220.7104
MEAN_ANOMALY   = 139.3436

EPHEMERIS_TYPE = 0
CLASSIFICATION_TYPE = U
NORAD_CAT_ID   = 33504
ELEMENT_SET_NO = 999
REV_AT_EPOCH   = 94272
BSTAR          = .23991E-3
MEAN_MOTION_DOT = .10552E-3
MEAN_MOTION_DDOT = 0

CCSDS_OMM_VERS = 2.0
CREATION_DATE  = 
ORIGINATOR     = 

OBJECT_NAME    = CZ-2C R/B
OBJECT_ID      = 2011-030B
CENTER_NAME    = EARTH
REF_FRAME      = TEME
TIME_SYSTEM    = UTC
MEAN_ELEMENT_THEORY = SGP/SGP4

EPOCH          = 2026-02-17T21:22:48.679680
MEAN_MOTION    = 14.81140383
ECCENTRICITY   = .0054008
INCLINATION    = 97.8512
RA_OF_ASC_NODE = 6.5567
ARG_OF_PERICENTER = 55.6594
MEAN_ANOMALY   = 32.1269

EPHEMERIS_TYPE = 0
CLASSIFICATION_TYPE = U
NORAD_CAT_ID   = 37731
ELEMENT_SET_NO = 999
REV_AT_EPOCH   = 78716
BSTAR          = .20217E-3
MEAN_MOTION_DOT = .1557E-4
MEAN_MOTION_DDOT = 0

CCSDS_OMM_VERS = 2.0
CREATION_DATE  = 
ORIGINATOR     = 

OBJECT_NAME    = H-2A R/B
OBJECT_ID      = 2012-025E
CENTER_NAME    = EARTH
REF_FRAME      = TEME
TIME_SYSTEM    = UTC
MEAN_ELEMENT_THEORY = SGP/SGP4

EPOCH          = 2026-02-18T02:51:25.913088
MEAN_MOTION    = 14.94989677
ECCENTRICITY   = .0045283
INCLINATION    = 98.4703
RA_OF_ASC_NODE = 14.6071
ARG_OF_PERICENTER = 18.9805
MEAN_ANOMALY   = 341.3089

EPHEMERIS_TYPE = 0
CLASSIFICATION_TYPE = U
NORAD_CAT_ID   = 38341
ELEMENT_SET_NO = 999
REV_AT_EPOCH   = 74529
BSTAR          = .3889E-3
MEAN_MOTION_DOT = .4269E-4
MEAN_MOTION_DDOT = 0

CCSDS_OMM_VERS = 2.0
CREATION_DATE  = 
ORIGINATOR     = 

OBJECT_NAME    = SHIJIAN-16 (SJ-16)
OBJECT_ID      = 2013-057A
CENTER_NAME    = EARTH
REF_FRAME      = TEME
TIME_SYSTEM    = UTC
MEAN_ELEMENT_THEORY = SGP/SGP4

EPOCH          = 2026-02-18T04:29:24.888768
MEAN_MOTION    = 14.92265749
ECCENTRICITY   = .0016341
INCLINATION    = 74.9700
RA_OF_ASC_NODE = 222.0052
ARG_OF_PERICENTER = 161.9708
MEAN_ANOMALY   = 198.2064

EPHEMERIS_TYPE = 0
CLASSIFICATION_TYPE = U
NORAD_CAT_ID   = 39358
ELEMENT_SET_NO = 999
REV_AT_EPOCH   = 66859
BSTAR          = .1758E-3
MEAN_MOTION_DOT = .177E-4
MEAN_MOTION_DDOT = 0

