ALOS (DAICHI)           
1 28931U 06002A   26049.16863764  .00001334  00000+0  23205-3 0  9998
2 28931  98.1187   5.2273 0001724  57.2609 302.8763 14.69742075 70619
H-2A R/B                
1 28932U 06002B   26048.34829913  .00009760  00000+0  49488-3 0  9998
2 28932  98.2372 193.6357 0052275 311.2531  48.4201 15.15986519 91355
RESURS-DK 1             
1 29228U 06021A   26049.09414676  .00002111  00000+0  12669-3 0  9991
2 29228  69.9327 287.7110 0003498 188.7669 171.3436 15.12624950 84569
CZ-4B R/B               
1 29507U 06046C   26049.08194668  .00004506  00000+0  23058-3 0  9997
2 29507  97.5630  94.0422 0032733 338.1558  21.8277 15.16686147 57078
CZ-2C R/B               
1 31114U 07010B   26048.71802794  .00000106  00000+0  67698-4 0  9992
2 31114  98.3972 162.9991 0058730 353.4843   6.5565 14.20238899976881
COSMO-SKYMED 1          
1 31598U 07023A   26049.20644448  .00003834  00000+0  34375-3 0  9993
2 31598  97.8860 240.0845 0001411  91.9382 268.2001 14.96375609 11997
KORONAS-FOTON           
1 33504U 09003A   26049.11513105  .00010552  00000+0  23991-3 0  9994
2 33504  82.4308 296.2207 0009471 220.7104 139.3436 15.42795880942729
CZ-2C R/B               
1 37731U 11030B   26048.89084120  .00001557  00000+0  20217-3 0  9990
2 37731  97.8512   6.5567 0054008  55.6594  32.1269 14.81140383787160
H-2A R/B                
1 38341U 12025E   26049.11904992  .00004269  00000+0  38890-3 0  9996
2 38341  98.4703  14.6071 0045283  18.9805 341.3089 14.94989677745293
SHIJIAN-16 (SJ-16)      
1 39358U 13057A   26049.18709362  .00001770  00000+0  17580-3 0  9999
2 39358  74.9700 222.0052 0016341 161.9708 198.2064 14.92265749668590
